[{"OBJECT_NAME":"TIANMU-1 10","OBJECT_ID":"2023-101D","EPOCH":"2026-03-09T23:06:46.939392","MEAN_MOTION":15.2921896,"ECCENTRICITY":0.00069292,"INCLINATION":97.2749,"RA_OF_ASC_NODE":122.1027,"ARG_OF_PERICENTER":133.6162,"MEAN_ANOMALY":226.5654,"EPHEMERIS_TYPE":0,"CLASSIFICATION_TYPE":"U","NORAD_CAT_ID":57402,"ELEMENT_SET_NO":999,"REV_AT_EPOCH":14647,"BSTAR":0.00032238884,"MEAN_MOTION_DOT":9.075e-5,"MEAN_MOTION_DDOT":0},{"OBJECT_NAME":"STARLINK-32497","OBJECT_ID":"2024-224Y","EPOCH":"2026-03-09T07:31:50.026944","MEAN_MOTION":15.27587021,"ECCENTRICITY":9.983e-5,"INCLINATION":42.9993,"RA_OF_ASC_NODE":163.5927,"ARG_OF_PERICENTER":178.3372,"MEAN_ANOMALY":181.7484,"EPHEMERIS_TYPE":0,"CLASSIFICATION_TYPE":"U","NORAD_CAT_ID":62161,"ELEMENT_SET_NO":999,"REV_AT_EPOCH":7237,"BSTAR":0.00093672831,"MEAN_MOTION_DOT":0.0002561,"MEAN_MOTION_DDOT":0}]
